IRIDIUM 112             
1 41925U 17003J   25315.17669309 -.00000064  00000+0 -29907-4 0  9991
2 41925  86.4010 179.3896 0002122  83.2006 276.9432 14.34217114462026
IRIDIUM 111             
1 41926U 17003K   25315.16400702  .00000036  00000+0  59242-5 0  9994
2 41926  86.4010 179.4608 0001971  83.9323 276.2097 14.34217229462004
IRIDIUM 113             
1 42803U 17039A   25315.28350944  .00000250  00000+0  82366-4 0  9993
2 42803  86.3984  53.2397 0002108  92.6973 267.4464 14.34217416439959
IRIDIUM 123             
1 42804U 17039B   25315.32498702  .00000440  00000+0  14997-3 0  9999
2 42804  86.3947  84.7122 0001732  89.9349 270.2046 14.34218457438720
IRIDIUM 120             
1 42805U 17039C   25315.27716594 -.00000006  00000+0 -92538-5 0  9995
2 42805  86.3972  53.0531 0001903 105.7579 254.3826 14.34217335439942
IRIDIUM 115             
1 42806U 17039D   25315.28107557  .00000921  00000+0  26790-3 0  9999
2 42806  86.4513  53.1504 0001546  99.5267 260.6108 14.43281778442830
IRIDIUM 118             
1 42807U 17039E   25315.28693195  .00000381  00000+0  12905-3 0  9991
2 42807  86.3945  84.7270 0002161  88.8416 271.3027 14.34217707438712
IRIDIUM 117             
1 42808U 17039F   25315.30595653  .00000155  00000+0  48181-4 0  9990
2 42808  86.3944  84.6788 0001807  88.9326 271.2077 14.34216028438744
